NORAD_CAT_ID,OBJECT_NAME,OBJECT_TYPE,EPOCH,MEAN_MOTION,ECCENTRICITY,INCLINATION,RA_OF_ASC_NODE,ARG_OF_PERICENTER,MEAN_ANOMALY,BSTAR,MEAN_MOTION_DOT,MEAN_MOTION_DDOT,TLE_LINE0,TLE_LINE1,TLE_LINE2,SEMIMAJOR_AXIS,PERIOD,APOGEE,PERIGEE,DECAYED
55953.0,STARLINK-5889,PAYLOAD,2023-05-20 01:21:20,15.69924405,0.0003354,69.9999,3.1231,274.9107,85.1706,6.8514e-08,-2.04e-06,0.0,0 STARLINK-5889,1 55953U 23037AR  23140.05648323 -.00000204  00000-0  68514-7 0  9991,2 55953  69.9999   3.1231 0003354 274.9107  85.1706 15.69924405 10468,6737.25,91.724,361.375,356.856,0.0
55953.0,STARLINK-5889,PAYLOAD,2023-05-20 18:10:35,15.69941963,0.000372,69.9986,1.1559,264.903,95.1741,3.2849e-05,3.742e-05,0.0,0 STARLINK-5889,1 55953U 23037AR  23140.75735421  .00003742  00000-0  32849-4 0  9992,2 55953  69.9986   1.1559 0003720 264.9030  95.1741 15.69941963 10576,6737.2,91.723,361.571,356.559,0.0
55953.0,STARLINK-5889,PAYLOAD,2023-05-20 21:14:06,15.699287,0.0003672,69.9991,0.7966,270.898,89.1795,5.0891e-06,3.99e-06,0.0,0 STARLINK-5889,1 55953U 23037AR  23140.88479273  .00000399  00000-0  50891-5 0  9999,2 55953  69.9991   0.7966 0003672 270.8980  89.1795 15.69928700 10256,6737.238,91.724,361.577,356.629,0.0
55953.0,STARLINK-5889,PAYLOAD,2023-05-21 00:17:37,15.69906794,0.0003213,69.9982,0.4353,272.4009,87.6819,-3.556e-05,-4.483e-05,0.0,0 STARLINK-5889,1 55953U 23037AR  23141.01223942 -.00004483  00000-0 -35560-4 0  9990,2 55953  69.9982   0.4353 0003213 272.4009  87.6819 15.69906794 10613,6737.301,91.725,361.33,357.001,0.0
55953.0,STARLINK-5889,PAYLOAD,2023-05-21 14:03:23,15.69917236,0.0003659,69.9969,358.8258,266.1121,93.9657,-1.1135e-05,-1.551e-05,0.0,0 STARLINK-5889,1 55953U 23037AR  23141.58569372 -.00001551  00000-0 -11135-4 0  9997,2 55953  69.9969 358.8258 0003659 266.1121  93.9657 15.69917236 10366,6737.271,91.725,361.601,356.671,0.0
55953.0,STARLINK-5889,PAYLOAD,2023-05-21 15:35:08,15.69917492,0.0003431,69.9984,358.6487,261.974,98.1066,-2.142e-05,-2.787e-05,0.0,0 STARLINK-5889,1 55953U 23037AR  23141.64940365 -.00002787  00000-0 -21420-4 0  9999,2 55953  69.9984 358.6487 0003431 261.9740  98.1066 15.69917492 10717,6737.27,91.725,361.447,356.823,0.0
55953.0,STARLINK-5889,PAYLOAD,2023-05-21 18:38:38,15.69929804,0.000369,69.9986,358.2874,267.923,92.1543,6.0216e-06,5.11e-06,0.0,0 STARLINK-5889,1 55953U 23037AR  23141.77683181  .00000511  00000-0  60216-5 0  9991,2 55953  69.9986 358.2874 0003690 267.9230  92.1543 15.69929804 10390,6737.235,91.724,361.586,356.614,0.0
55953.0,STARLINK-5889,PAYLOAD,2023-05-22 00:45:38,15.69934327,0.0003457,69.9983,357.5702,263.1793,96.9009,2.8467e-05,3.213e-05,0.0,0 STARLINK-5889,1 55953U 23037AR  23142.03169662  .00003213  00000-0  28467-4 0  9997,2 55953  69.9983 357.5702 0003457 263.1793  96.9009 15.69934327 10779,6737.222,91.724,361.416,356.758,0.0
55953.0,STARLINK-5889,PAYLOAD,2023-05-22 16:03:10,15.69923526,0.0003663,69.9988,355.7793,267.3984,92.6792,2.0352e-05,2.235e-05,0.0,0 STARLINK-5889,1 55953U 23037AR  23142.66886743  .00002235  00000-0  20352-4 0  9990,2 55953  69.9988 355.7793 0003663 267.3984  92.6792 15.69923526 10873,6737.253,91.724,361.586,356.65,0.0
55953.0,STARLINK-5889,PAYLOAD,2023-05-22 20:38:25,15.69920514,0.0003781,69.9989,355.242,269.3469,90.7294,1.299e-05,1.349e-05,0.0,0 STARLINK-5889,1 55953U 23037AR  23142.86001954  .00001349  00000-0  12990-4 0  9999,2 55953  69.9989 355.2420 0003781 269.3469  90.7294 15.69920514 10563,6737.261,91.724,361.674,356.579,0.0
55953.0,STARLINK-5889,PAYLOAD,2023-05-23 16:31:12,15.69928929,0.0003768,69.9973,352.9128,270.0143,90.0621,4.3155e-06,3.06e-06,0.0,0 STARLINK-5889,1 55953U 23037AR  23143.68833519  .00000306  00000-0  43155-5 0  9990,2 55953  69.9973 352.9128 0003768 270.0143  90.0621 15.69928929 11036,6737.237,91.724,361.641,356.564,0.0
55953.0,STARLINK-5889,PAYLOAD,2023-05-24 00:09:58,15.69911178,0.000364,69.9974,352.0171,275.0766,85.0014,-1.6662e-05,-2.215e-05,0.0,0 STARLINK-5889,1 55953U 23037AR  23144.00693195 -.00002215  00000-0 -16662-4 0  9996,2 55953  69.9974 352.0171 0003640 275.0766  85.0014 15.69911178 11084,6737.288,91.725,361.605,356.701,0.0
55953.0,STARLINK-5889,PAYLOAD,2023-05-24 15:27:29,15.69916858,0.0004045,69.9966,350.2261,275.0047,85.0687,6.0942e-06,5.19e-06,0.0,0 STARLINK-5889,1 55953U 23037AR  23144.64409138  .00000519  00000-0  60942-5 0  9992,2 55953  69.9966 350.2261 0004045 275.0047  85.0687 15.69916858 11184,6737.272,91.725,361.862,356.412,0.0
55953.0,STARLINK-5889,PAYLOAD,2023-05-25 14:23:46,15.69925847,0.0003658,69.9953,347.5385,270.3387,89.7389,-5.1971e-07,-2.76e-06,0.0,0 STARLINK-5889,1 55953U 23037AR  23145.59983907 -.00000276  00000-0 -51971-6 0  9993,2 55953  69.9953 347.5385 0003658 270.3387  89.7389 15.69925847 10996,6737.246,91.724,361.576,356.647,0.0
55953.0,STARLINK-5889,PAYLOAD,2023-05-25 15:55:31,15.69928118,0.000336,69.9966,347.3597,266.2147,93.8665,6.4146e-06,5.59e-06,0.0,0 STARLINK-5889,1 55953U 23037AR  23145.66355369  .00000559  00000-0  64146-5 0  9995,2 55953  69.9966 347.3597 0003360 266.2147  93.8665 15.69928118 11348,6737.24,91.724,361.368,356.841,0.0
55953.0,STARLINK-5889,PAYLOAD,2023-05-25 22:02:31,15.69933831,0.0003302,69.9965,346.6426,265.6969,94.3849,1.2648e-05,1.309e-05,0.0,0 STARLINK-5889,1 55953U 23037AR  23145.91841512  .00001309  00000-0  12648-4 0  9996,2 55953  69.9965 346.6426 0003302 265.6969  94.3849 15.69933831 11046,6737.223,91.724,361.313,356.864,0.0
55953.0,STARLINK-5889,PAYLOAD,2023-05-25 23:34:17,15.69910489,0.0003686,69.9968,346.4644,274.3214,85.756,-1.2823e-05,-1.754e-05,0.0,0 STARLINK-5889,1 55953U 23037AR  23145.98214993 -.00001754  00000-0 -12823-4 0  9991,2 55953  69.9968 346.4644 0003686 274.3214  85.7560 15.69910489 11390,6737.29,91.725,361.638,356.672,0.0
55953.0,STARLINK-5889,PAYLOAD,2023-05-26 13:20:03,15.69920948,0.0004047,69.9961,344.8503,270.8413,89.2319,-4.9449e-06,-8.08e-06,0.0,0 STARLINK-5889,1 55953U 23037AR  23146.55559407 -.00000808  00000-0 -49449-5 0  9991,2 55953  69.9961 344.8503 0004047 270.8413  89.2319 15.69920948 11148,6737.26,91.724,361.852,356.399,0.0
55953.0,STARLINK-5889,PAYLOAD,2023-05-26 16:23:33,15.69925988,0.0003809,69.9967,344.4917,275.5083,84.5678,1.1801e-06,-7.1e-07,0.0,0 STARLINK-5889,1 55953U 23037AR  23146.68302386 -.00000071  00000-0  11801-5 0  9999,2 55953  69.9967 344.4917 0003809 275.5083  84.5678 15.69925988 11504,6737.246,91.724,361.677,356.545,0.0
55953.0,STARLINK-5889,PAYLOAD,2023-05-26 20:58:48,15.69928817,0.0003439,69.9978,343.9562,269.0509,91.0293,3.0386e-06,1.53e-06,0.0,0 STARLINK-5889,1 55953U 23037AR  23146.87417166  .00000153  00000-0  30386-5 0  9992,2 55953  69.9978 343.9562 0003439 269.0509  91.0293 15.69928817 11191,6737.238,91.724,361.42,356.786,0.0
55953.0,STARLINK-5889,PAYLOAD,2023-05-27 21:26:50,15.69926226,0.0003564,69.9973,341.0893,273.2594,86.8194,4.2848e-06,3.02e-06,0.0,0 STARLINK-5889,1 55953U 23037AR  23147.89364160  .00000302  00000-0  42848-5 0  9992,2 55953  69.9973 341.0893 0003564 273.2594  86.8194 15.69926226 11354,6737.245,91.724,361.511,356.709,0.0
55953.0,STARLINK-5889,PAYLOAD,2023-05-27 22:58:35,15.69925231,0.0003562,69.9972,340.91,272.7651,87.3137,3.9235e-06,2.59e-06,0.0,0 STARLINK-5889,1 55953U 23037AR  23147.95735898  .00000259  00000-0  39235-5 0  9996,2 55953  69.9972 340.9100 0003562 272.7651  87.3137 15.69925231 11705,6737.248,91.724,361.513,356.713,0.0
55953.0,STARLINK-5889,PAYLOAD,2023-05-28 20:23:06,15.69932135,0.0003468,69.997,338.4021,271.0914,88.9885,1.6297e-05,1.748e-05,0.0,0 STARLINK-5889,1 55953U 23037AR  23148.84938628  .00001748  00000-0  16297-4 0  9997,2 55953  69.9970 338.4021 0003468 271.0914  88.9885 15.69932135 11502,6737.228,91.724,361.43,356.757,0.0
55953.0,STARLINK-5889,PAYLOAD,2023-05-28 21:54:52,15.69932328,0.0003451,69.997,338.2229,270.1475,89.9325,1.6333e-05,1.752e-05,0.0,0 STARLINK-5889,1 55953U 23037AR  23148.91310262  .00001752  00000-0  16333-4 0  9999,2 55953  69.9970 338.2229 0003451 270.1475  89.9325 15.69932328 11856,6737.228,91.724,361.418,356.768,0.0
55953.0,STARLINK-5889,PAYLOAD,2023-05-29 05:33:39,15.69913662,0.0003405,69.9971,337.3275,268.524,91.5566,-6.528e-07,-2.91e-06,0.0,0 STARLINK-5889,1 55953U 23037AR  23149.23170140 -.00000291  00000-0 -65280-6 0  9990,2 55953  69.9971 337.3275 0003405 268.5240  91.5566 15.69913662 11900,6737.281,91.725,361.44,356.852,0.0
55953.0,STARLINK-5889,PAYLOAD,2023-05-29 14:44:09,15.69916379,0.0003499,69.9971,336.2519,269.6191,90.4604,5.8149e-06,4.86e-06,0.0,0 STARLINK-5889,1 55953U 23037AR  23149.61400072  .00000486  00000-0  58149-5 0  9991,2 55953  69.9971 336.2519 0003499 269.6191  90.4604 15.69916379 11627,6737.273,91.725,361.496,356.781,0.0
55953.0,STARLINK-5889,PAYLOAD,2023-05-29 20:51:09,15.69930104,0.0003307,69.9989,335.5366,265.3072,94.7746,2.3969e-05,2.671e-05,0.0,0 STARLINK-5889,1 55953U 23037AR  23149.86885780  .00002671  00000-0  23969-4 0  9990,2 55953  69.9989 335.5366 0003307 265.3072  94.7746 15.69930104 11667,6737.234,91.724,361.327,356.871,0.0
55953.0,STARLINK-5889,PAYLOAD,2023-05-29 22:22:54,15.69930472,0.0003319,69.9988,335.3574,265.7033,94.3783,2.5531e-05,2.859e-05,0.0,0 STARLINK-5889,1 55953U 23037AR  23149.93257471  .00002859  00000-0  25531-4 0  9993,2 55953  69.9988 335.3574 0003319 265.7033  94.3783 15.69930472 12014,6737.233,91.724,361.334,356.862,0.0
55953.0,STARLINK-5889,PAYLOAD,2023-05-30 06:01:40,15.6992517,0.0003287,69.9985,334.4607,269.8235,90.2584,1.2866e-05,1.335e-05,0.0,0 STARLINK-5889,1 55953U 23037AR  23150.25116154  .00001335  00000-0  12866-4 0  9997,2 55953  69.9985 334.4607 0003287 269.8235  90.2584 15.69925170 12069,6737.248,91.724,361.328,356.899,0.0
55953.0,STARLINK-5889,PAYLOAD,2023-05-30 12:08:40,15.69930365,0.0003445,69.9985,333.7439,268.1417,91.9384,1.5067e-05,1.6e-05,0.0,0 STARLINK-5889,1 55953U 23037AR  23150.50602438  .00001600  00000-0  15067-4 0  9991,2 55953  69.9985 333.7439 0003445 268.1417  91.9384 15.69930365 11768,6737.233,91.724,361.419,356.777,0.0
